{"type":"FeatureCollection","features":[{"type":"Feature","properties":{"name":"Portugal"},"geometry":{"type":"MultiPolygon","coordinates":[[[[-17.190869,32.868604],[-17.054492,32.815869],[-16.929199,32.841406],[-16.693262,32.758008],[-16.837402,32.648291],[-17.018262,32.662793],[-17.226025,32.766846],[-17.241016,32.807373],[-17.190869,32.868604]]],[[[-8.777148,41.941064],[-8.589648,42.052734],[-8.266064,42.137402],[-8.213086,42.133691],[-8.12998,42.018164],[-8.224756,41.89585],[-8.15249,41.811963],[-7.92085,41.883643],[-7.693066,41.888477],[-7.403613,41.833691],[-7.209619,41.895264],[-7.147119,41.981152],[-6.618262,41.942383],[-6.55752,41.874121],[-6.542187,41.67251],[-6.308057,41.642187],[-6.2125,41.532031],[-6.690137,41.214502],[-6.928467,41.009131],[-6.835889,40.77749],[-6.852051,40.443262],[-6.810156,40.343115],[-7.032617,40.16792],[-6.896094,40.021826],[-6.975391,39.798389],[-7.036719,39.713965],[-7.117676,39.681689],[-7.535693,39.661572],[-7.445117,39.536182],[-7.335449,39.465137],[-7.305762,39.338135],[-7.172412,39.135205],[-7.042969,39.10708],[-6.997949,39.056445],[-7.046045,38.907031],[-7.281543,38.714551],[-7.343018,38.457422],[-7.106396,38.181006],[-6.957568,38.187891],[-7.022852,38.044727],[-7.185449,38.006348],[-7.443945,37.728271],[-7.503516,37.585498],[-7.406152,37.179443],[-7.834131,37.005713],[-8.136768,37.077051],[-8.597656,37.121338],[-8.848437,37.075684],[-8.935352,37.016016],[-8.997803,37.032275],[-8.81416,37.430811],[-8.791846,37.732812],[-8.878955,37.958691],[-8.802246,38.183838],[-8.881104,38.44668],[-8.668311,38.424316],[-8.798877,38.518164],[-9.213281,38.448096],[-9.203369,38.538965],[-9.250391,38.656738],[-9.021484,38.746875],[-8.977051,38.80293],[-9.000488,38.903027],[-8.938086,38.998096],[-8.791602,39.078174],[-8.954297,39.016064],[-9.135791,38.742773],[-9.356738,38.6979],[-9.474121,38.730859],[-9.414355,39.112109],[-9.352832,39.248145],[-9.374756,39.338281],[-9.148291,39.542578],[-8.837842,40.115674],[-8.886621,40.179443],[-8.872656,40.259082],[-8.772412,40.605664],[-8.684619,40.752539],[-8.659814,41.086279],[-8.805664,41.56001],[-8.81084,41.651953],[-8.75542,41.698389],[-8.846387,41.705176],[-8.887598,41.7646],[-8.878223,41.83208],[-8.777148,41.941064]]],[[[-25.027344,36.959961],[-25.159912,36.943359],[-25.198389,36.996533],[-25.08291,37.024023],[-25.027344,36.959961]]],[[[-31.137109,39.406934],[-31.181348,39.358936],[-31.282959,39.394092],[-31.26084,39.496777],[-31.199854,39.52085],[-31.138623,39.479443],[-31.137109,39.406934]]],[[[-27.075244,38.643457],[-27.302832,38.661035],[-27.385937,38.76582],[-27.259668,38.802686],[-27.127002,38.789844],[-27.041943,38.741211],[-27.075244,38.643457]]],[[[-27.778467,38.555615],[-28.092334,38.620557],[-28.310645,38.743896],[-27.962646,38.636328],[-27.778467,38.555615]]],[[[-28.605811,38.550732],[-28.743848,38.522363],[-28.842041,38.598437],[-28.697754,38.638477],[-28.605811,38.550732]]],[[[-28.402148,38.553369],[-28.064795,38.412744],[-28.231152,38.384668],[-28.454492,38.408643],[-28.548828,38.518555],[-28.402148,38.553369]]],[[[-25.648975,37.840918],[-25.266602,37.848633],[-25.181934,37.837891],[-25.190723,37.764355],[-25.251123,37.73501],[-25.439014,37.715332],[-25.734473,37.762891],[-25.833691,37.826074],[-25.845898,37.894043],[-25.78374,37.911133],[-25.648975,37.840918]]]]}},{"type":"Feature","properties":{"name":"Morocco"},"geometry":{"type":"Polygon","coordinates":[[[-2.219629,35.104199],[-2.131787,34.97085],[-1.795605,34.751904],[-1.849658,34.607324],[-1.733301,34.467041],[-1.791797,34.36792],[-1.706934,34.176074],[-1.714111,33.781836],[-1.63125,33.566748],[-1.679199,33.318652],[-1.45,32.784814],[-1.111035,32.552295],[-1.065527,32.468311],[-1.240332,32.337598],[-1.262109,32.271143],[-1.225928,32.107227],[-2.448389,32.12998],[-2.863428,32.074707],[-2.930859,32.042529],[-3.017383,31.834277],[-3.439795,31.704541],[-3.768164,31.689551],[-3.84668,31.619873],[-3.78916,31.361816],[-3.833398,31.197803],[-3.624512,31.065771],[-3.666797,30.964014],[-3.985352,30.913525],[-4.322852,30.698877],[-4.968262,30.465381],[-5.180127,30.166162],[-5.448779,29.956934],[-6.004297,29.83125],[-6.479736,29.820361],[-6.520557,29.659863],[-6.635352,29.568799],[-7.142432,29.61958],[-7.485742,29.392236],[-7.685156,29.349512],[-8.265186,28.980518],[-8.678418,28.689404],[-8.68335,27.656445],[-8.817822,27.656445],[-8.774365,27.460547],[-8.796826,27.308203],[-8.753857,27.191016],[-8.794873,27.120703],[-9.413037,27.088477],[-9.735352,26.860937],[-9.817871,26.850195],[-10.032715,26.910742],[-10.251465,26.860937],[-10.55127,26.99082],[-10.757764,27.020117],[-10.922803,27.010352],[-11.392578,26.883398],[-11.316846,26.744727],[-11.337891,26.633398],[-11.51167,26.470312],[-11.718213,26.104102],[-12.030762,26.030859],[-12.060986,25.99082],[-12.310986,25.110937],[-12.431152,24.830664],[-12.991162,24.470312],[-13.310986,23.981055],[-13.770947,23.790625],[-13.891113,23.691016],[-14.020996,23.410742],[-14.101074,23.100195],[-14.221191,22.310156],[-14.630859,21.860937],[-14.610791,21.750586],[-14.750977,21.500586],[-14.971143,21.441016],[-16.041016,21.500586],[-16.730957,21.470312],[-17.003076,21.420703],[-16.930859,21.9],[-16.793262,22.159717],[-16.683984,22.274365],[-16.514404,22.333496],[-16.35874,22.594531],[-16.304297,22.834814],[-16.169727,23.031934],[-16.210254,23.0979],[-15.789258,23.792871],[-15.80166,23.842236],[-15.980713,23.670312],[-15.899316,23.844434],[-15.586328,24.072754],[-15.188623,24.478809],[-15.038867,24.548828],[-14.904297,24.719775],[-14.794922,25.40415],[-14.522754,25.925244],[-14.470557,26.163037],[-14.413867,26.253711],[-14.168359,26.41543],[-13.9521,26.48877],[-13.575781,26.735107],[-13.175977,27.655713],[-13.040723,27.769824],[-12.948926,27.91416],[-12.793652,27.978418],[-12.468896,28.009424],[-11.986084,28.129297],[-11.552686,28.310107],[-11.430176,28.382031],[-11.080957,28.71377],[-10.486475,29.064941],[-10.200586,29.380371],[-9.743457,29.958203],[-9.66709,30.109277],[-9.623828,30.352637],[-9.65293,30.447559],[-9.773145,30.603125],[-9.853906,30.64458],[-9.875488,30.71792],[-9.832422,30.847266],[-9.808691,31.424609],[-9.674951,31.710986],[-9.347461,32.086377],[-9.286572,32.240576],[-9.24585,32.572461],[-8.512842,33.252441],[-8.301172,33.374365],[-7.562354,33.640283],[-6.900977,33.969043],[-6.755762,34.13291],[-6.353125,34.776074],[-5.924805,35.785791],[-5.622852,35.828906],[-5.397363,35.929883],[-5.277832,35.902734],[-5.337646,35.856543],[-5.337646,35.745215],[-5.252686,35.614746],[-4.837207,35.281299],[-4.62832,35.206396],[-4.32998,35.161475],[-3.693262,35.27998],[-3.590625,35.22832],[-3.394727,35.211816],[-3.206006,35.239111],[-2.972217,35.407275],[-2.839941,35.127832],[-2.219629,35.104199]]]}},{"type":"Feature","properties":{"name":"France"},"geometry":{"type":"MultiPolygon","coordinates":[[[[9.463281,42.981006],[9.454199,42.658594],[9.526172,42.552637],[9.550684,42.129736],[9.400879,41.926221],[9.374219,41.678809],[9.186133,41.384912],[8.80752,41.588379],[8.886816,41.700684],[8.717969,41.761426],[8.758691,41.87041],[8.74043,41.925146],[8.621875,41.930713],[8.700977,42.095605],[8.587793,42.16084],[8.566211,42.218799],[8.675488,42.284033],[8.565625,42.357715],[8.713086,42.549756],[8.814844,42.60791],[9.043652,42.66167],[9.137891,42.73291],[9.313379,42.713184],[9.363184,43.017383],[9.463281,42.981006]]],[[[7.615625,47.592725],[7.343164,47.433105],[7.203125,47.432715],[7.136035,47.489844],[6.968359,47.453223],[6.900391,47.394238],[7.000586,47.32251],[6.666895,47.026514],[6.45625,46.94834],[6.410156,46.75542],[6.160742,46.611035],[6.067969,46.458545],[6.123242,46.378613],[6.095898,46.279395],[5.97002,46.214697],[5.971484,46.151221],[6.006641,46.142334],[6.199414,46.193066],[6.272949,46.252246],[6.234668,46.332617],[6.428906,46.430518],[6.776074,46.406641],[6.816797,46.275195],[6.77207,46.165137],[7.021094,45.925781],[6.804492,45.814551],[6.790918,45.740869],[7.153418,45.400928],[7.07832,45.239941],[6.842285,45.135645],[6.692285,45.144287],[6.627734,45.117969],[6.634766,45.068164],[6.738184,44.921387],[6.992676,44.827295],[7.030664,44.716699],[6.960352,44.677148],[6.842969,44.510693],[6.900195,44.335742],[7.318555,44.137988],[7.637207,44.164844],[7.677148,44.083154],[7.482031,43.864893],[7.493164,43.767139],[7.39502,43.765332],[7.181445,43.659131],[6.716602,43.373584],[6.657227,43.26167],[6.570215,43.199072],[6.115918,43.072363],[5.809473,43.0979],[5.671582,43.177832],[5.406543,43.228516],[5.320215,43.344922],[5.073145,43.366602],[5.059766,43.444531],[4.712109,43.373291],[4.224219,43.479639],[4.052637,43.593066],[3.91084,43.563086],[3.784766,43.461621],[3.258887,43.193213],[3.051758,42.915137],[3.090918,42.590869],[3.211426,42.431152],[2.891406,42.456055],[2.701855,42.408496],[2.65166,42.340479],[2.200391,42.420947],[2.032715,42.353516],[1.706055,42.50332],[1.740234,42.556738],[1.709863,42.604443],[1.501367,42.642725],[1.42832,42.595898],[1.349414,42.690674],[0.764453,42.838037],[0.669824,42.835742],[0.631641,42.6896],[0.201367,42.719336],[-0.041162,42.689111],[-0.299316,42.825342],[-0.586426,42.798975],[-0.762646,42.939795],[-1.175439,43.021143],[-1.285449,43.059619],[-1.300049,43.100977],[-1.370508,43.037598],[-1.46084,43.051758],[-1.410693,43.240088],[-1.712842,43.307031],[-1.794043,43.407324],[-1.631445,43.438037],[-1.484863,43.56377],[-1.345996,44.020215],[-1.245508,44.559863],[-1.170801,44.661816],[-1.076953,44.689844],[-1.152881,44.764014],[-1.245215,44.666699],[-1.189062,45.161475],[-1.081006,45.532422],[-0.826318,45.380664],[-0.76665,45.314355],[-0.691113,45.093457],[-0.548486,45.000586],[-0.641113,45.090186],[-0.790771,45.468018],[-1.195996,45.714453],[-1.209961,45.770898],[-1.031738,45.741064],[-1.104395,45.925342],[-1.146289,46.311377],[-1.39248,46.350098],[-1.786523,46.514844],[-2.059375,46.810303],[-2.090283,46.920508],[-2.018896,47.037646],[-2.19707,47.162939],[-2.108301,47.262939],[-2.027588,47.273584],[-1.742529,47.215967],[-1.975391,47.310693],[-2.353027,47.27876],[-2.503125,47.312061],[-2.530029,47.381592],[-2.427686,47.470898],[-2.554053,47.527051],[-2.770312,47.513867],[-2.796777,47.537256],[-2.733105,47.601807],[-2.787207,47.625537],[-2.964062,47.601074],[-3.064209,47.621338],[-3.158838,47.694678],[-3.443945,47.711035],[-3.900928,47.837549],[-4.312109,47.8229],[-4.427979,47.968945],[-4.678809,48.039502],[-4.629199,48.085791],[-4.377832,48.128809],[-4.329443,48.169971],[-4.512207,48.229736],[-4.577148,48.290039],[-4.241406,48.303662],[-4.393164,48.367627],[-4.719385,48.363135],[-4.7625,48.450244],[-4.720752,48.539893],[-4.531201,48.619971],[-4.058887,48.70752],[-3.714795,48.710498],[-3.471484,48.812939],[-3.231445,48.84082],[-3.003223,48.790674],[-2.692334,48.536816],[-2.446191,48.648291],[-2.079443,48.64502],[-2.003711,48.58208],[-1.905713,48.697119],[-1.824707,48.630518],[-1.376465,48.652588],[-1.480469,48.697607],[-1.565479,48.805518],[-1.583105,49.202393],[-1.813428,49.490137],[-1.870068,49.595117],[-1.856445,49.683789],[-1.588232,49.667676],[-1.365723,49.707275],[-1.258643,49.680176],[-1.232275,49.494873],[-1.138525,49.387891],[-0.163477,49.296777],[0.136133,49.401514],[0.416895,49.448389],[0.439258,49.473193],[0.277637,49.463281],[0.129395,49.508447],[0.109375,49.55752],[0.186719,49.703027],[0.616211,49.862939],[1.245508,49.998242],[1.592773,50.252197],[1.551563,50.293945],[1.579492,50.739258],[1.672266,50.88501],[1.9125,50.990625],[2.524902,51.097119],[2.601465,50.955273],[2.596777,50.875928],[2.759375,50.750635],[2.839746,50.711768],[3.106836,50.779443],[3.234961,50.662939],[3.27334,50.531543],[3.59541,50.477344],[3.689355,50.306055],[3.748047,50.343506],[3.949707,50.335938],[4.174609,50.246484],[4.135254,50.143799],[4.192188,50.094141],[4.136816,50.0],[4.176074,49.960254],[4.54502,49.960254],[4.656152,50.002441],[4.706641,50.09707],[4.818652,50.153174],[4.860547,50.135889],[4.790039,49.95957],[4.841504,49.914502],[4.867578,49.788135],[5.006934,49.778369],[5.278809,49.67793],[5.507324,49.510889],[5.789746,49.538281],[6.011426,49.445459],[6.242188,49.494336],[6.534277,49.394678],[6.735449,49.160596],[6.891211,49.20752],[7.001465,49.179883],[7.036719,49.112695],[7.450586,49.152197],[7.610938,49.061768],[8.134863,48.973584],[8.140332,48.886426],[7.837988,48.636035],[7.705664,48.280029],[7.616602,48.156787],[7.529395,47.673877],[7.615625,47.592725]]],[[[-1.17832,45.904053],[-1.213574,45.816602],[-1.368701,45.967676],[-1.388672,46.050391],[-1.17832,45.904053]]],[[[45.180273,-12.976758],[45.117578,-12.984961],[45.069434,-12.895605],[45.093555,-12.786133],[45.042578,-12.70127],[45.092383,-12.653027],[45.223145,-12.752148],[45.180273,-12.976758]]],[[[55.797363,-21.339355],[55.557617,-21.358301],[55.362695,-21.273633],[55.232813,-21.058398],[55.311328,-20.904102],[55.450488,-20.865137],[55.661914,-20.90625],[55.839063,-21.138574],[55.797363,-21.339355]]],[[[-60.82627,14.494482],[-60.862109,14.42627],[-60.899414,14.473779],[-61.063721,14.46709],[-61.090332,14.529687],[-61.011328,14.601904],[-61.141113,14.652393],[-61.21333,14.848584],[-61.127393,14.875293],[-60.927148,14.755176],[-60.933691,14.686182],[-60.82627,14.494482]]],[[[-61.172607,16.256104],[-61.522168,16.228027],[-61.53999,16.299609],[-61.500586,16.360205],[-61.528906,16.433789],[-61.471191,16.506641],[-61.406445,16.468311],[-61.355469,16.363184],[-61.172607,16.256104]]],[[[-61.589551,16.006934],[-61.670459,15.962061],[-61.759424,16.062061],[-61.794092,16.300977],[-61.748047,16.355273],[-61.552344,16.270898],[-61.589551,16.006934]]],[[[-61.203418,15.92124],[-61.310742,15.894678],[-61.318408,15.954883],[-61.25,16.006299],[-61.203418,15.92124]]],[[[-54.61626,2.326758],[-54.535937,2.343311],[-54.402002,2.461523],[-54.195508,2.817871],[-54.170703,2.993604],[-54.203125,3.138184],[-54.00957,3.448535],[-53.990479,3.589551],[-54.350732,4.054102],[-54.342139,4.140039],[-54.398389,4.20249],[-54.449609,4.48501],[-54.426074,4.583008],[-54.47334,4.914697],[-54.452197,5.013477],[-54.331641,5.187402],[-54.085303,5.411816],[-53.919922,5.768994],[-53.847168,5.782227],[-53.454443,5.563477],[-52.899316,5.425049],[-52.453955,5.021338],[-52.290527,4.942187],[-52.324609,4.770898],[-52.219971,4.862793],[-52.058105,4.717383],[-51.961914,4.514404],[-52.00293,4.352295],[-51.927686,4.436133],[-51.880273,4.63374],[-51.827539,4.635693],[-51.66582,4.228809],[-51.652539,4.061279],[-51.76709,3.992676],[-51.82749,3.86958],[-51.990625,3.702002],[-52.162598,3.364697],[-52.327881,3.181738],[-52.559473,2.573145],[-52.700635,2.363672],[-52.903467,2.211523],[-53.009717,2.181738],[-53.229785,2.204883],[-53.334424,2.339746],[-53.508984,2.253125],[-53.734717,2.308545],[-53.767773,2.354834],[-54.130078,2.121045],[-54.433105,2.20752],[-54.61626,2.326758]]]]}},{"type":"Feature","properties":{"name":"Andorra"},"geometry":{"type":"Polygon","coordinates":[[[1.706055,42.50332],[1.448828,42.437451],[1.414844,42.548389],[1.458887,42.62168],[1.568164,42.63501],[1.709863,42.604443],[1.740234,42.556738],[1.706055,42.50332]]]}},{"type":"Feature","properties":{"name":"Algeria"},"geometry":{"type":"Polygon","coordinates":[[[8.576563,36.937207],[8.60127,36.833936],[8.444238,36.760742],[8.369629,36.63252],[8.207617,36.518945],[8.302734,36.455615],[8.34873,36.367969],[8.24707,35.801807],[8.318066,35.654932],[8.316406,35.403125],[8.394238,35.203857],[8.276855,34.979492],[8.245605,34.734082],[8.123438,34.563916],[7.838281,34.410303],[7.748535,34.254492],[7.513867,34.080518],[7.500195,33.832471],[7.731348,33.268506],[8.1125,33.055322],[8.210938,32.926709],[8.333398,32.543604],[9.044043,32.072363],[9.51875,30.229395],[9.310254,30.115234],[9.640137,29.636426],[9.805273,29.176953],[9.842578,28.966992],[9.815625,28.560205],[9.916016,27.785693],[9.747559,27.330859],[9.79541,27.044775],[9.894434,26.847949],[9.883203,26.630811],[9.859375,26.551953],[9.491406,26.33374],[9.422363,26.14707],[9.448242,26.067139],[10.000684,25.33208],[10.028125,25.051025],[10.119531,24.790234],[10.255859,24.591016],[10.395898,24.485596],[10.686133,24.551367],[11.507617,24.314355],[11.967871,23.517871],[7.481738,20.873096],[5.836621,19.47915],[5.74834,19.434229],[3.400879,18.988428],[3.255957,19.013281],[3.119727,19.103174],[3.106055,19.150098],[3.255859,19.410938],[3.20166,19.5604],[3.203711,19.789697],[3.130273,19.850195],[2.865723,19.955957],[2.406152,20.063867],[2.219336,20.247803],[1.928809,20.272705],[1.753223,20.331592],[1.685449,20.378369],[1.610645,20.555566],[1.290234,20.713574],[1.165723,20.817432],[1.145508,21.102246],[-4.516992,24.804492],[-8.68335,27.285937],[-8.678418,28.689404],[-8.265186,28.980518],[-7.685156,29.349512],[-7.485742,29.392236],[-7.142432,29.61958],[-6.635352,29.568799],[-6.520557,29.659863],[-6.479736,29.820361],[-6.004297,29.83125],[-5.448779,29.956934],[-5.180127,30.166162],[-4.968262,30.465381],[-4.322852,30.698877],[-3.985352,30.913525],[-3.666797,30.964014],[-3.624512,31.065771],[-3.833398,31.197803],[-3.78916,31.361816],[-3.84668,31.619873],[-3.768164,31.689551],[-3.439795,31.704541],[-3.017383,31.834277],[-2.930859,32.042529],[-2.863428,32.074707],[-2.448389,32.12998],[-1.225928,32.107227],[-1.262109,32.271143],[-1.240332,32.337598],[-1.065527,32.468311],[-1.111035,32.552295],[-1.45,32.784814],[-1.679199,33.318652],[-1.63125,33.566748],[-1.714111,33.781836],[-1.706934,34.176074],[-1.791797,34.36792],[-1.733301,34.467041],[-1.849658,34.607324],[-1.795605,34.751904],[-2.131787,34.97085],[-2.219629,35.104199],[-1.913281,35.094238],[-1.673633,35.183105],[-1.33584,35.364258],[-1.087695,35.578857],[-0.426123,35.861523],[-0.048242,35.832812],[0.047949,35.900537],[0.15166,36.063135],[0.312207,36.162354],[0.97168,36.443945],[1.257227,36.51958],[2.593359,36.600684],[2.972852,36.784473],[3.520508,36.795117],[3.779004,36.896191],[4.758105,36.896338],[5.29541,36.648242],[5.725488,36.799609],[6.064746,36.864258],[6.249121,36.93833],[6.327832,37.046045],[6.486523,37.085742],[6.575879,37.003027],[6.927539,36.919434],[7.238477,36.968506],[7.204297,37.092383],[7.432422,37.059277],[7.910449,36.856348],[8.127148,36.910352],[8.576563,36.937207]]]}}]}